# From MPC106342
C/1995 O1 (Hale-Bopp),e,89.2287,282.8566,130.4207,177.2499,0.0004177,0.99497021,0.0000,03/29.6780/1997,2000,g -2.0,4.0
# From NK 1615
P/1996 R2 (Lagerkvist),e,2.6009,40.0099,333.3709,3.774708,0.1343937,0.31451279,163.4809,06/13.0/2022,2000,g 11.5,4.0
# From MPC 75703
P/1998 VS24 (LINEAR),e,5.0266,159.0407,244.6049,4.526142,0.1023556,0.24292885,164.3475,06/13.0/2022,2000,g 13.0,2.0
# From NK 731
P/1999 RO28 (LONEOS),e,7.5665,137.8801,231.2811,3.426568,0.1553871,0.67248696,168.1707,06/13.0/2022,2000,g 20.0,2.0
# From MPC 75704
P/1999 XN120 (Catalina),e,5.0297,285.2962,161.7150,4.179068,0.1153679,0.21029815,211.2172,06/13.0/2022,2000,g 13.5,2.0
# From NK 744
P/2000 R2 (LINEAR),e,11.6874,160.2853,176.5774,3.467410,0.1526498,0.53152921,166.5744,06/13.0/2022,2000,g 18.0,4.0
# From MPC 43019
P/2001 H5 (NEAT),e,8.3670,328.6841,224.7737,6.096443,0.0654771,0.59820889,159.2870,06/13.0/2022,2000,g 12.0,4.0
# From MPC 75704
P/2001 Q6 (NEAT),e,56.9115,22.1822,42.9321,7.957283,0.0439093,0.82325428,332.5362,06/13.0/2022,2000,g 13.5,4.0
# From MPC 47727
P/2002 EJ57 (LINEAR),e,4.9769,330.3167,167.3069,6.465315,0.0599542,0.59229098,87.3288,06/13.0/2022,2000,g 12.5,4.0
# From MPC109588
P/2002 T6 (NEAT-LINEAR),e,10.8480,206.0996,219.6077,7.715696,0.0459877,0.56192533,324.6603,06/13.0/2022,2000,g 10.5,4.0
# From MPC 75007
C/2002 VQ94 (LINEAR),e,70.6734,35.1216,100.0248,184.3278,0.0003938,0.96302889,2.3549,06/13.0/2022,2000,g  9.5,2.0
# From MPC 50354
P/2003 F2 (NEAT),e,11.6094,359.0021,192.2522,6.502775,0.0594369,0.54158384,56.0848,06/13.0/2022,2000,g 16.5,2.0
# From MPC 50139
P/2003 QX29 (NEAT),e,11.3921,264.5289,37.6248,8.018909,0.0434041,0.47273099,310.0755,06/13.0/2022,2000,g  8.5,4.0
# From MPC105235
P/2003 T12 (SOHO),e,11.0225,174.5860,219.7447,2.585620,0.2370593,0.77004594,181.7975,06/13.0/2022,2000,g 17.0,4.0
# From MPC 82312
P/2004 A1 (LONEOS),e,10.5517,124.8559,21.1354,7.968577,0.0438160,0.30976474,286.3547,06/13.0/2022,2000,g  6.5,4.0
# From MPC 54558
P/2004 DO29 (Spacewatch-LINEAR),e,14.5320,147.3741,40.5548,7.292352,0.0500498,0.44115460,323.8621,06/13.0/2022,2000,g 13.5,2.0
# From MPC 54823
P/2004 FY140 (LINEAR),e,2.1348,326.7738,242.1996,4.905921,0.0907033,0.16788751,228.6903,06/13.0/2022,2000,g 12.5,2.0
# From MPC 53304
P/2004 R3 (LINEAR-NEAT),e,12.7820,305.3484,37.7540,4.768785,0.0946439,0.25630872,25.0629,06/13.0/2022,2000,g 14.5,4.0
# From MPC 55521
P/2004 V3 (Siding Spring),e,50.4438,356.1304,322.4518,7.133020,0.0517361,0.44608747,332.6923,06/13.0/2022,2000,g 11.5,4.0
# From MPC 75705
P/2004 V5 (LINEAR-Hill),e,19.3409,47.7881,87.5977,7.986533,0.0436683,0.44430610,277.4939,06/13.0/2022,2000,g  8.0,4.0
# From MPC 54164
P/2005 E1 (Tubbiolo),e,4.2635,335.5724,193.9313,7.047243,0.0526836,0.37537812,335.0975,06/13.0/2022,2000,g 10.0,4.0
# From MPC 54823
P/2005 GF8 (LONEOS),e,1.1791,314.2329,284.6007,5.788670,0.0707678,0.51673995,70.1644,06/13.0/2022,2000,g 11.5,4.0
# From MPC 79019
P/2005 J1 (McNaught),e,31.7453,268.8254,338.9440,3.571475,0.1460268,0.56915534,195.7070,06/13.0/2022,2000,g 16.5,4.0
# From MPC 74246
P/2005 L1 (McNaught),e,7.7361,138.2480,149.8559,3.983650,0.1239602,0.21106831,27.4622,06/13.0/2022,2000,g  9.5,4.0
# From MPC 75706
P/2005 S2 (Skiff),e,3.1356,161.2233,229.3209,8.008210,0.0434912,0.19829642,255.2376,06/13.0/2022,2000,g  7.5,4.0
# From MPC 75706
P/2005 SB216 (LONEOS),e,24.1085,1.1335,83.2714,7.142127,0.0516372,0.46437272,292.1926,06/13.0/2022,2000,g 12.0,2.0
# From MPC 73461
P/2005 T3 (Read),e,6.2236,27.6824,6.6702,7.587707,0.0471561,0.17516959,288.1423,06/13.0/2022,2000,g  9.0,4.0
# From MPC 73461
P/2005 T4 (SWAN),e,160.2574,25.8843,41.7965,9.360138,0.0344176,0.92971496,209.7457,06/13.0/2022,2000,g 15.0,4.0
# From MPC 75706
P/2005 T5 (Broughton),e,21.3748,56.9997,304.6569,7.283529,0.0501408,0.55264266,304.9884,06/13.0/2022,2000,g 11.0,4.0
# From MPC 75706
P/2005 Y2 (McNaught),e,19.0475,94.1906,193.7190,6.344593,0.0616735,0.46835905,37.2240,06/13.0/2022,2000,g  9.0,4.0
# From MPC 56954
P/2006 F4 (Spacewatch),e,12.4513,183.8332,30.6248,3.513155,0.1496780,0.34238424,156.3940,06/13.0/2022,2000,g 15.0,4.0
# From MPC 75707
P/2006 HR30 (Siding Spring),e,31.8480,309.8598,117.3425,7.809812,0.0451589,0.84289465,255.6496,06/13.0/2022,2000,g 11.0,4.0
# From MPEC 2022-L66
C/2006 S3 (LONEOS),h,04/17.6463/2012,166.0349,38.6053,140.5550,1.002206,5.158828,2000,2.0,4.0
# From MPC 75707
P/2007 A2 (Christensen),e,26.4867,300.9121,186.7040,6.334580,0.0618198,0.55820141,349.5483,06/13.0/2022,2000,g 13.5,4.0
# From MPC 75707
P/2007 C2 (Catalina),e,8.6114,275.3423,180.1543,6.996694,0.0532555,0.47183280,286.5198,06/13.0/2022,2000,g 10.0,4.0
# From MPC 84315
C/2007 D1 (LINEAR),e,41.5015,171.2364,339.8527,1232,0.0000228,0.99285877,0.0000,06/07.1157/2007,2000,g  3.5,4.0
# From MPC 82314
P/2007 K2 (Gibbs),e,7.6277,188.6349,347.3738,7.272666,0.0502532,0.68298267,276.4960,06/13.0/2022,2000,g 14.0,4.0
# From MPC 60925
P/2007 Q2 (Gilmore),e,10.2027,172.1528,162.8311,5.656031,0.0732717,0.67009557,41.2524,06/13.0/2022,2000,g 16.0,4.0
# From MPC 73462
P/2007 S1 (Zhao),e,5.9622,141.3649,245.2495,3.823474,0.1318308,0.33971219,344.7024,06/13.0/2022,2000,g 13.0,4.0
# From MPC 61994
P/2007 T2 (Kowalski),e,9.7523,3.3777,359.6554,3.046066,0.1853938,0.78564724,263.1170,06/13.0/2022,2000,g 18.5,4.0
# From MPC 63599
C/2007 W1 (Boattini),e,9.9290,333.8840,307.1533,2331,0.0000088,0.99963547,0.0000,06/29.5121/2008,2000,g  9.5,4.0
# From MPC 75709
P/2008 L2 (Hill),e,25.8680,218.0171,141.2553,6.027519,0.0666034,0.61340832,337.8841,06/13.0/2022,2000,g 12.5,4.0
# From MPC 64114
P/2008 O3 (Boattini),e,32.3182,47.5681,341.1474,8.216946,0.0418445,0.69619259,214.5370,06/13.0/2022,2000,g 13.0,4.0
# From MPC 75710
P/2008 Y3 (McNaught),e,38.7759,262.8407,238.0802,8.047883,0.0431700,0.44564633,212.6904,06/13.0/2022,2000,g  8.5,4.0
# From MPC 75710
P/2009 B1 (Boattini),e,22.2300,297.0792,128.8858,6.737585,0.0563570,0.63541008,276.6456,06/13.0/2022,2000,g 13.0,4.0
# From MPC 66466
C/2009 G1 (STEREO),e,108.5917,120.5164,175.4905,459.6182,0.0001000,0.99752103,0.0000,04/17.7285/2009,2000,g  9.0,4.0
# From MPC 75710
P/2009 O3 (Hill),e,16.2875,183.6863,154.4769,7.767234,0.0455307,0.68786804,216.9179,06/13.0/2022,2000,g 12.5,4.0
# From MPC 68902
P/2009 Q5 (McNaught),e,40.9886,160.2800,209.0797,7.431387,0.0486518,0.60970592,226.5886,06/13.0/2022,2000,g 10.0,4.0
# From MPC112389
P/2009 T2 (La Sagra),e,27.5970,215.8820,216.3321,7.720056,0.0459487,0.76614325,209.0221,06/13.0/2022,2000,g 14.0,4.0
# From MPC105235
P/2009 WX51 (Catalina),e,9.5940,31.5833,118.2446,3.082744,0.1820950,0.73959458,104.5133,06/13.0/2022,2000,g 19.0,2.0
# From MPC 74247
P/2009 Y2 (Kowalski),e,29.9536,262.0364,172.1292,6.550184,0.0587928,0.63656179,263.9501,06/13.0/2022,2000,g 13.0,4.0
# From MPC 75711
P/2010 A3 (Hill),e,14.8178,63.6682,42.2628,6.084589,0.0656685,0.73365446,294.1335,06/13.0/2022,2000,g 14.0,4.0
# From MPC 75008
P/2010 C1 (Scotti),e,9.1272,141.8811,3.4553,7.104343,0.0520497,0.25988833,239.6654,06/13.0/2022,2000,g  9.5,4.0
# From MPC 75008
P/2010 D2 (WISE),e,57.0928,319.8861,119.9517,6.720232,0.0565754,0.45131492,255.1487,06/13.0/2022,2000,g 16.0,4.0
# From MPEC 2021-BE3
C/2010 E3 (WISE),e,96.1230,117.2021,50.5295,231.3702,0.0002801,0.99015523,0.0000,03/29.0918/2010,2000,g 15.0,4.0
# From MPC 75009
P/2010 E2 (Jarnac),e,15.3851,177.8200,8.3216,8.640237,0.0388075,0.71945711,173.1550,06/13.0/2022,2000,g 14.0,4.0
# From MPC 72851
P/2010 H2 (Vales),e,14.2777,64.1875,128.0260,3.832435,0.1313687,0.19640169,228.4470,06/13.0/2022,2000,g  6.0,4.0
# From MPC 70361
P/2010 H3 (SOHO),e,23.0662,77.0869,26.1568,3.036497,0.1862708,0.98535669,0.0000,02/07.8915/2021,2000,g 20.0,2.0
# From MPC 73463
P/2010 H4 (Scotti),e,2.3178,44.7281,179.3916,6.597755,0.0581581,0.26634977,255.0758,06/13.0/2022,2000,g 10.5,4.0
# From MPC 74637
P/2010 H5 (Scotti),e,14.0579,24.7953,174.8706,7.168770,0.0513496,0.15257596,229.2965,06/13.0/2022,2000,g 13.0,2.0
# From MPC 98558
P/2010 J3 (McMillan),e,13.2719,106.4522,157.5914,8.978455,0.0366355,0.72593235,157.8292,06/13.0/2022,2000,g 11.0,4.0
# From MPC 84315
P/2010 JC81 (WISE),e,38.8087,30.8642,12.4234,8.106720,0.0427008,0.77769610,173.7363,06/13.0/2022,2000,g  9.0,4.0
# From MPC 74248
P/2010 T2 (PANSTARRS),e,7.8866,58.6220,352.8362,5.558871,0.0752011,0.32272062,311.6032,06/13.0/2022,2000,g 11.5,4.0
# From MPC 98558
P/2010 TO20 (LINEAR-Grauer),e,2.4788,43.2864,267.3033,5.832860,0.0699651,0.05559970,348.3899,06/13.0/2022,2000,g  9.0,4.0
# From MPC 82316
P/2010 U1 (Boattini),e,8.2186,280.6868,86.1690,6.503936,0.0594210,0.24903637,268.1738,06/13.0/2022,2000,g  9.5,4.0
# From MPEC 2022-L66
C/2010 U3 (Boattini),e,55.5482,42.9997,88.0432,2370,0.0000085,0.99643785,0.0000,02/25.2348/2019,2000,g  1.0,4.0
# From MPC 79021
P/2010 UH55 (Spacewatch),e,8.0386,232.9111,225.1460,6.654612,0.0574143,0.56354965,234.6280,06/13.0/2022,2000,g 11.0,4.0
# From MPC 75009
P/2010 WK (LINEAR),e,11.4016,11.3343,40.9695,5.762438,0.0712516,0.69038056,305.1723,06/13.0/2022,2000,g 14.5,2.0
# From MPC 84021
P/2011 C2 (Gibbs),e,10.8867,12.1211,160.6174,7.412752,0.0488354,0.26902821,186.8903,06/13.0/2022,2000,g  9.0,4.0
# From MPC 79866
P/2011 FR143 (Lemmon),e,15.9758,190.9492,349.9796,6.862381,0.0548267,0.45052281,226.4537,06/13.0/2022,2000,g 14.0,2.0
# From MPC 82317
P/2011 JB15 (Spacewatch-Boattini),e,19.1474,153.5819,111.0714,7.363687,0.0493243,0.31641947,187.3239,06/13.0/2022,2000,g  9.0,4.0
# From MPC 87913
P/2011 N1 (ASH),e,35.7549,77.5809,330.3663,6.245921,0.0631407,0.54478821,232.0162,06/13.0/2022,2000,g 11.5,4.0
# From MPC 75714
P/2011 NO1 (Elenin),e,15.2452,295.8232,263.7238,5.529685,0.0757973,0.77454364,315.8797,06/13.0/2022,2000,g 15.0,4.0
# From MPEC 2022-ED3
P/2011 P1 (McNaught),e,5.6611,4.2316,349.0993,7.460247,0.0483698,0.32762971,209.7287,06/13.0/2022,2000,g  9.0,4.0
# From MPEC 2022-HC2
P/2011 S1 (Gibbs),e,2.6867,218.8395,192.4497,8.582930,0.0391968,0.20128957,112.1284,06/13.0/2022,2000,g  8.0,4.0
# From MPC 79022
